STARLINK-2270
1 48000U 21024Z   26092.80006513  .00041197  00000+0  12187-2 0  9995
2 48000  53.1278 130.0782 0001372  32.9829 327.1259 15.34530167279526
